OKEAN-3                 
1 21397U 91039A   25300.17333821  .00003712  00000+0  26857-3 0  9995
2 21397  82.5144 106.1036 0015766  67.8156 292.4741 15.03650088844969
COSMOS 2151             
1 21422U 91042A   25300.18059753  .00003080  00000+0  24886-3 0  9996
2 21422  82.4991 212.3536 0013333 143.4776 216.7360 14.99432770843188
SL-14 R/B               
1 21423U 91042B   25300.18537063  .00000567  00000+0  69045-4 0  9996
2 21423  82.4943 345.3828 0016080 324.1435  35.8698 14.81677754833300
ERS-1                   
1 21574U 91050A   25300.02191699  .00000488  00000+0  17113-3 0  9996
2 21574  98.7934 309.9010 0031093 237.8607 121.9562 14.39311170796505
ARIANE 40 R/B           
1 21610U 91050F   25300.11331919  .00000492  00000+0  16012-3 0  9990
2 21610  98.2232 352.2114 0004298 112.7903 247.3742 14.42753931799735
INTERCOSMOS 25          
1 21819U 91086A   25299.98623905  .00001293  00000+0  24799-3 0  9992
2 21819  82.6089  30.8260 1489011  45.1321 326.1399 12.11536566480499
SL-8 R/B                
1 21876U 92008B   25300.13264450  .00000113  00000+0  10047-3 0  9997
2 21876  82.9306   7.1088 0035591 146.0113 239.5130 13.75945602691053
SL-8 R/B                
1 21938U 92020B   25300.15684855  .00000078  00000+0  64963-4 0  9994
2 21938  82.9288 252.9089 0028029 312.8701 184.2175 13.75519279682777
USA 81                  
1 21949U 92023A   25300.15775309  .00000301  00000+0  10419-3 0  9999
2 21949  85.0117 208.4315 0002762  91.0628 269.0881 14.32301431 75676
COSMOS 2219             
1 22219U 92076A   25300.17814226  .00000423  00000+0  24689-3 0  9991
2 22219  71.0589 297.1633 0016660  39.2545 320.9782 14.14053285699509
SL-16 R/B               
1 22220U 92076B   25300.21309953 -.00000092  00000+0 -22101-4 0  9996
2 22220  70.9974 109.5360 0014944 294.4179 238.4024 14.16828770702925
COSMOS 2221             
1 22236U 92080A   25299.78467947  .00003333  00000+0  29852-3 0  9993
2 22236  82.5062  47.2482 0013235 283.4781  76.4965 14.95476990760772
