CCSDS_OMM_VERS = 2.0
CREATION_DATE  = 
ORIGINATOR     = 

OBJECT_NAME    = OKEAN-3
OBJECT_ID      = 1991-039A
CENTER_NAME    = EARTH
REF_FRAME      = TEME
TIME_SYSTEM    = UTC
MEAN_ELEMENT_THEORY = SGP/SGP4

EPOCH          = 2025-10-27T04:09:36.421344
MEAN_MOTION    = 15.03650088
ECCENTRICITY   = .0015766
INCLINATION    = 82.5144
RA_OF_ASC_NODE = 106.1036
ARG_OF_PERICENTER = 67.8156
MEAN_ANOMALY   = 292.4741

EPHEMERIS_TYPE = 0
CLASSIFICATION_TYPE = U
NORAD_CAT_ID   = 21397
ELEMENT_SET_NO = 999
REV_AT_EPOCH   = 84496
BSTAR          = .26857E-3
MEAN_MOTION_DOT = .3712E-4
MEAN_MOTION_DDOT = 0

CCSDS_OMM_VERS = 2.0
CREATION_DATE  = 
ORIGINATOR     = 

OBJECT_NAME    = COSMOS 2151
OBJECT_ID      = 1991-042A
CENTER_NAME    = EARTH
REF_FRAME      = TEME
TIME_SYSTEM    = UTC
MEAN_ELEMENT_THEORY = SGP/SGP4

EPOCH          = 2025-10-27T04:20:03.626592
MEAN_MOTION    = 14.99432770
ECCENTRICITY   = .0013333
INCLINATION    = 82.4991
RA_OF_ASC_NODE = 212.3536
ARG_OF_PERICENTER = 143.4776
MEAN_ANOMALY   = 216.7360

EPHEMERIS_TYPE = 0
CLASSIFICATION_TYPE = U
NORAD_CAT_ID   = 21422
ELEMENT_SET_NO = 999
REV_AT_EPOCH   = 84318
BSTAR          = .24886E-3
MEAN_MOTION_DOT = .308E-4
MEAN_MOTION_DDOT = 0

CCSDS_OMM_VERS = 2.0
CREATION_DATE  = 
ORIGINATOR     = 

OBJECT_NAME    = SL-14 R/B
OBJECT_ID      = 1991-042B
CENTER_NAME    = EARTH
REF_FRAME      = TEME
TIME_SYSTEM    = UTC
MEAN_ELEMENT_THEORY = SGP/SGP4

EPOCH          = 2025-10-27T04:26:56.022432
MEAN_MOTION    = 14.81677754
ECCENTRICITY   = .001608
INCLINATION    = 82.4943
RA_OF_ASC_NODE = 345.3828
ARG_OF_PERICENTER = 324.1435
MEAN_ANOMALY   = 35.8698

EPHEMERIS_TYPE = 0
CLASSIFICATION_TYPE = U
NORAD_CAT_ID   = 21423
ELEMENT_SET_NO = 999
REV_AT_EPOCH   = 83330
BSTAR          = .69045E-4
MEAN_MOTION_DOT = .567E-5
MEAN_MOTION_DDOT = 0

CCSDS_OMM_VERS = 2.0
CREATION_DATE  = 
ORIGINATOR     = 

OBJECT_NAME    = ERS-1
OBJECT_ID      = 1991-050A
CENTER_NAME    = EARTH
REF_FRAME      = TEME
TIME_SYSTEM    = UTC
MEAN_ELEMENT_THEORY = SGP/SGP4

EPOCH          = 2025-10-27T00:31:33.627936
MEAN_MOTION    = 14.39311170
ECCENTRICITY   = .0031093
INCLINATION    = 98.7934
RA_OF_ASC_NODE = 309.9010
ARG_OF_PERICENTER = 237.8607
MEAN_ANOMALY   = 121.9562

EPHEMERIS_TYPE = 0
CLASSIFICATION_TYPE = U
NORAD_CAT_ID   = 21574
ELEMENT_SET_NO = 999
REV_AT_EPOCH   = 79650
BSTAR          = .17113E-3
MEAN_MOTION_DOT = .488E-5
MEAN_MOTION_DDOT = 0

CCSDS_OMM_VERS = 2.0
CREATION_DATE  = 
ORIGINATOR     = 

OBJECT_NAME    = ARIANE 40 R/B
OBJECT_ID      = 1991-050F
CENTER_NAME    = EARTH
REF_FRAME      = TEME
TIME_SYSTEM    = UTC
MEAN_ELEMENT_THEORY = SGP/SGP4

EPOCH          = 2025-10-27T02:43:10.778016
MEAN_MOTION    = 14.42753931
ECCENTRICITY   = .0004298
INCLINATION    = 98.2232
RA_OF_ASC_NODE = 352.2114
ARG_OF_PERICENTER = 112.7903
MEAN_ANOMALY   = 247.3742

EPHEMERIS_TYPE = 0
CLASSIFICATION_TYPE = U
NORAD_CAT_ID   = 21610
ELEMENT_SET_NO = 999
REV_AT_EPOCH   = 79973
BSTAR          = .16012E-3
MEAN_MOTION_DOT = .492E-5
MEAN_MOTION_DDOT = 0

CCSDS_OMM_VERS = 2.0
CREATION_DATE  = 
ORIGINATOR     = 

OBJECT_NAME    = INTERCOSMOS 25
OBJECT_ID      = 1991-086A
CENTER_NAME    = EARTH
REF_FRAME      = TEME
TIME_SYSTEM    = UTC
MEAN_ELEMENT_THEORY = SGP/SGP4

EPOCH          = 2025-10-26T23:40:11.053920
MEAN_MOTION    = 12.11536566
ECCENTRICITY   = .1489011
INCLINATION    = 82.6089
RA_OF_ASC_NODE = 30.8260
ARG_OF_PERICENTER = 45.1321
MEAN_ANOMALY   = 326.1399

EPHEMERIS_TYPE = 0
CLASSIFICATION_TYPE = U
NORAD_CAT_ID   = 21819
ELEMENT_SET_NO = 999
REV_AT_EPOCH   = 48049
BSTAR          = .24799E-3
MEAN_MOTION_DOT = .1293E-4
MEAN_MOTION_DDOT = 0

CCSDS_OMM_VERS = 2.0
CREATION_DATE  = 
ORIGINATOR     = 

OBJECT_NAME    = SL-8 R/B
OBJECT_ID      = 1992-008B
CENTER_NAME    = EARTH
REF_FRAME      = TEME
TIME_SYSTEM    = UTC
MEAN_ELEMENT_THEORY = SGP/SGP4

EPOCH          = 2025-10-27T03:11:00.484800
MEAN_MOTION    = 13.75945602
ECCENTRICITY   = .0035591
INCLINATION    = 82.9306
RA_OF_ASC_NODE = 7.1088
ARG_OF_PERICENTER = 146.0113
MEAN_ANOMALY   = 239.5130

EPHEMERIS_TYPE = 0
CLASSIFICATION_TYPE = U
NORAD_CAT_ID   = 21876
ELEMENT_SET_NO = 999
REV_AT_EPOCH   = 69105
BSTAR          = .10047E-3
MEAN_MOTION_DOT = .113E-5
MEAN_MOTION_DDOT = 0

CCSDS_OMM_VERS = 2.0
CREATION_DATE  = 
ORIGINATOR     = 

OBJECT_NAME    = SL-8 R/B
OBJECT_ID      = 1992-020B
CENTER_NAME    = EARTH
REF_FRAME      = TEME
TIME_SYSTEM    = UTC
MEAN_ELEMENT_THEORY = SGP/SGP4

EPOCH          = 2025-10-27T03:45:51.714720
MEAN_MOTION    = 13.75519279
ECCENTRICITY   = .0028029
INCLINATION    = 82.9288
RA_OF_ASC_NODE = 252.9089
ARG_OF_PERICENTER = 312.8701
MEAN_ANOMALY   = 184.2175

EPHEMERIS_TYPE = 0
CLASSIFICATION_TYPE = U
NORAD_CAT_ID   = 21938
ELEMENT_SET_NO = 999
REV_AT_EPOCH   = 68277
BSTAR          = .64963E-4
MEAN_MOTION_DOT = .78E-6
MEAN_MOTION_DDOT = 0

CCSDS_OMM_VERS = 2.0
CREATION_DATE  = 
ORIGINATOR     = 

OBJECT_NAME    = USA 81
OBJECT_ID      = 1992-023A
CENTER_NAME    = EARTH
REF_FRAME      = TEME
TIME_SYSTEM    = UTC
MEAN_ELEMENT_THEORY = SGP/SGP4

EPOCH          = 2025-10-27T03:47:09.866976
MEAN_MOTION    = 14.32301431
ECCENTRICITY   = .0002762
INCLINATION    = 85.0117
RA_OF_ASC_NODE = 208.4315
ARG_OF_PERICENTER = 91.0628
MEAN_ANOMALY   = 269.0881

EPHEMERIS_TYPE = 0
CLASSIFICATION_TYPE = U
NORAD_CAT_ID   = 21949
ELEMENT_SET_NO = 999
REV_AT_EPOCH   = 7567
BSTAR          = .10419E-3
MEAN_MOTION_DOT = .301E-5
MEAN_MOTION_DDOT = 0

CCSDS_OMM_VERS = 2.0
CREATION_DATE  = 
ORIGINATOR     = 

OBJECT_NAME    = COSMOS 2219
OBJECT_ID      = 1992-076A
CENTER_NAME    = EARTH
REF_FRAME      = TEME
TIME_SYSTEM    = UTC
MEAN_ELEMENT_THEORY = SGP/SGP4

EPOCH          = 2025-10-27T04:16:31.491264
MEAN_MOTION    = 14.14053285
ECCENTRICITY   = .001666
INCLINATION    = 71.0589
RA_OF_ASC_NODE = 297.1633
ARG_OF_PERICENTER = 39.2545
MEAN_ANOMALY   = 320.9782

EPHEMERIS_TYPE = 0
CLASSIFICATION_TYPE = U
NORAD_CAT_ID   = 22219
ELEMENT_SET_NO = 999
REV_AT_EPOCH   = 69950
BSTAR          = .24689E-3
MEAN_MOTION_DOT = .423E-5
MEAN_MOTION_DDOT = 0

CCSDS_OMM_VERS = 2.0
CREATION_DATE  = 
ORIGINATOR     = 

OBJECT_NAME    = SL-16 R/B
OBJECT_ID      = 1992-076B
CENTER_NAME    = EARTH
REF_FRAME      = TEME
TIME_SYSTEM    = UTC
MEAN_ELEMENT_THEORY = SGP/SGP4

EPOCH          = 2025-10-27T05:06:51.799392
MEAN_MOTION    = 14.16828770
ECCENTRICITY   = .0014944
INCLINATION    = 70.9974
RA_OF_ASC_NODE = 109.5360
ARG_OF_PERICENTER = 294.4179
MEAN_ANOMALY   = 238.4024

EPHEMERIS_TYPE = 0
CLASSIFICATION_TYPE = U
NORAD_CAT_ID   = 22220
ELEMENT_SET_NO = 999
REV_AT_EPOCH   = 70292
BSTAR          = -.22101E-4
MEAN_MOTION_DOT = -.92E-6
MEAN_MOTION_DDOT = 0

CCSDS_OMM_VERS = 2.0
CREATION_DATE  = 
ORIGINATOR     = 

OBJECT_NAME    = COSMOS 2221
OBJECT_ID      = 1992-080A
CENTER_NAME    = EARTH
REF_FRAME      = TEME
TIME_SYSTEM    = UTC
MEAN_ELEMENT_THEORY = SGP/SGP4

EPOCH          = 2025-10-26T18:49:56.306208
MEAN_MOTION    = 14.95476990
ECCENTRICITY   = .00132352
INCLINATION    = 82.5062
RA_OF_ASC_NODE = 47.2482
ARG_OF_PERICENTER = 283.4781
MEAN_ANOMALY   = 76.4965

EPHEMERIS_TYPE = 0
CLASSIFICATION_TYPE = U
NORAD_CAT_ID   = 22236
ELEMENT_SET_NO = 999
REV_AT_EPOCH   = 76077
BSTAR          = .2985224E-3
MEAN_MOTION_DOT = .3333E-4
MEAN_MOTION_DDOT = 0

